HIMAWARI-8              
1 40267U 14060A   24242.45012953 -.00000292  00000+0  00000+0 0  9995
2 40267   0.0292 226.2479 0000935 321.4134  93.1755  1.00272082 36170
